[{"OBJECT_NAME":"OPS 7218 (TRANSIT 16)","OBJECT_ID":"1967-048A","EPOCH":"2026-02-01T22:32:12.508224","MEAN_MOTION":13.50735214,"ECCENTRICITY":0.00194713,"INCLINATION":89.6778,"RA_OF_ASC_NODE":352.3263,"ARG_OF_PERICENTER":333.6436,"MEAN_ANOMALY":88.3732,"EPHEMERIS_TYPE":0,"CLASSIFICATION_TYPE":"U","NORAD_CAT_ID":2807,"ELEMENT_SET_NO":999,"REV_AT_EPOCH":88967,"BSTAR":0.00015274853,"MEAN_MOTION_DOT":1.08e-6,"MEAN_MOTION_DDOT":0},{"OBJECT_NAME":"OPS 4947 (TRANSIT 17)","OBJECT_ID":"1967-092A","EPOCH":"2026-02-01T23:14:25.419264","MEAN_MOTION":13.53468002,"ECCENTRICITY":0.00496682,"INCLINATION":89.2503,"RA_OF_ASC_NODE":20.5237,"ARG_OF_PERICENTER":87.2246,"MEAN_ANOMALY":325.035,"EPHEMERIS_TYPE":0,"CLASSIFICATION_TYPE":"U","NORAD_CAT_ID":2965,"ELEMENT_SET_NO":999,"REV_AT_EPOCH":87790,"BSTAR":0.00017646765,"MEAN_MOTION_DOT":1.31e-6,"MEAN_MOTION_DDOT":0},{"OBJECT_NAME":"OPS 7034 (TRANSIT 18)","OBJECT_ID":"1968-012A","EPOCH":"2026-02-01T17:09:13.540320","MEAN_MOTION":13.51580528,"ECCENTRICITY":0.00747481,"INCLINATION":90.0256,"RA_OF_ASC_NODE":273.7836,"ARG_OF_PERICENTER":24.1752,"MEAN_ANOMALY":36.1941,"EPHEMERIS_TYPE":0,"CLASSIFICATION_TYPE":"U","NORAD_CAT_ID":3133,"ELEMENT_SET_NO":999,"REV_AT_EPOCH":57607,"BSTAR":0.00020044663,"MEAN_MOTION_DOT":1.42e-6,"MEAN_MOTION_DDOT":0},{"OBJECT_NAME":"NNSS 19 (TRANSIT 19)","OBJECT_ID":"1970-067A","EPOCH":"2026-02-01T22:33:44.004960","MEAN_MOTION":13.51328214,"ECCENTRICITY":0.01729393,"INCLINATION":90.0027,"RA_OF_ASC_NODE":234.5626,"ARG_OF_PERICENTER":144.163,"MEAN_ANOMALY":217.1272,"EPHEMERIS_TYPE":0,"CLASSIFICATION_TYPE":"U","NORAD_CAT_ID":4507,"ELEMENT_SET_NO":999,"REV_AT_EPOCH":72913,"BSTAR":0.00017174448,"MEAN_MOTION_DOT":1.33e-6,"MEAN_MOTION_DDOT":0},{"OBJECT_NAME":"NNSS 20 (TRANSIT 20)","OBJECT_ID":"1973-081A","EPOCH":"2026-02-01T14:40:54.323904","MEAN_MOTION":13.71461057,"ECCENTRICITY":0.01528634,"INCLINATION":89.8527,"RA_OF_ASC_NODE":254.2869,"ARG_OF_PERICENTER":285.9759,"MEAN_ANOMALY":72.461,"EPHEMERIS_TYPE":0,"CLASSIFICATION_TYPE":"U","NORAD_CAT_ID":6909,"ELEMENT_SET_NO":999,"REV_AT_EPOCH":81058,"BSTAR":0.00019541636,"MEAN_MOTION_DOT":2.0e-6,"MEAN_MOTION_DDOT":0},{"OBJECT_NAME":"TRANSAT","OBJECT_ID":"1977-106A","EPOCH":"2026-02-01T16:22:40.604160","MEAN_MOTION":13.48952673,"ECCENTRICITY":0.00269276,"INCLINATION":89.6421,"RA_OF_ASC_NODE":76.7792,"ARG_OF_PERICENTER":49.9213,"MEAN_ANOMALY":69.0695,"EPHEMERIS_TYPE":0,"CLASSIFICATION_TYPE":"U","NORAD_CAT_ID":10457,"ELEMENT_SET_NO":999,"REV_AT_EPOCH":37430,"BSTAR":0.00014663642,"MEAN_MOTION_DOT":1.02e-6,"MEAN_MOTION_DDOT":0},{"OBJECT_NAME":"NOVA 1","OBJECT_ID":"1981-044A","EPOCH":"2026-02-01T16:57:55.199232","MEAN_MOTION":13.23284211,"ECCENTRICITY":0.00129351,"INCLINATION":89.8472,"RA_OF_ASC_NODE":90.6547,"ARG_OF_PERICENTER":330.0782,"MEAN_ANOMALY":146.2869,"EPHEMERIS_TYPE":0,"CLASSIFICATION_TYPE":"U","NORAD_CAT_ID":12458,"ELEMENT_SET_NO":999,"REV_AT_EPOCH":15860,"BSTAR":0.00011872831,"MEAN_MOTION_DOT":5.9e-7,"MEAN_MOTION_DDOT":0},{"OBJECT_NAME":"NOVA 3","OBJECT_ID":"1984-110A","EPOCH":"2026-02-01T15:59:31.032096","MEAN_MOTION":13.230516,"ECCENTRICITY":0.00315448,"INCLINATION":90.1162,"RA_OF_ASC_NODE":81.1213,"ARG_OF_PERICENTER":185.6096,"MEAN_ANOMALY":287.6079,"EPHEMERIS_TYPE":0,"CLASSIFICATION_TYPE":"U","NORAD_CAT_ID":15362,"ELEMENT_SET_NO":999,"REV_AT_EPOCH":99372,"BSTAR":0.00016409347,"MEAN_MOTION_DOT":7.8e-7,"MEAN_MOTION_DDOT":0},{"OBJECT_NAME":"OSCAR 30","OBJECT_ID":"1985-066A","EPOCH":"2026-02-01T18:07:48.429696","MEAN_MOTION":13.36088587,"ECCENTRICITY":0.01658703,"INCLINATION":90.1609,"RA_OF_ASC_NODE":100.6739,"ARG_OF_PERICENTER":300.0348,"MEAN_ANOMALY":188.6847,"EPHEMERIS_TYPE":0,"CLASSIFICATION_TYPE":"U","NORAD_CAT_ID":15935,"ELEMENT_SET_NO":999,"REV_AT_EPOCH":97134,"BSTAR":0.00021708195,"MEAN_MOTION_DOT":1.27e-6,"MEAN_MOTION_DDOT":0},{"OBJECT_NAME":"OSCAR 24","OBJECT_ID":"1985-066B","EPOCH":"2026-02-01T17:50:15.847008","MEAN_MOTION":13.35946038,"ECCENTRICITY":0.01670145,"INCLINATION":90.174,"RA_OF_ASC_NODE":93.1974,"ARG_OF_PERICENTER":306.652,"MEAN_ANOMALY":172.7086,"EPHEMERIS_TYPE":0,"CLASSIFICATION_TYPE":"U","NORAD_CAT_ID":15936,"ELEMENT_SET_NO":999,"REV_AT_EPOCH":97324,"BSTAR":0.00021116877,"MEAN_MOTION_DOT":1.24e-6,"MEAN_MOTION_DDOT":0},{"OBJECT_NAME":"POLAR BEAR","OBJECT_ID":"1986-088A","EPOCH":"2026-02-01T22:02:32.988768","MEAN_MOTION":13.75262787,"ECCENTRICITY":0.00381093,"INCLINATION":89.6211,"RA_OF_ASC_NODE":181.73,"ARG_OF_PERICENTER":328.5814,"MEAN_ANOMALY":142.6841,"EPHEMERIS_TYPE":0,"CLASSIFICATION_TYPE":"U","NORAD_CAT_ID":17070,"ELEMENT_SET_NO":999,"REV_AT_EPOCH":96682,"BSTAR":7.9459334e-5,"MEAN_MOTION_DOT":8.7e-7,"MEAN_MOTION_DDOT":0},{"OBJECT_NAME":"OSCAR 27","OBJECT_ID":"1987-080A","EPOCH":"2026-02-01T15:46:15.330432","MEAN_MOTION":13.44917965,"ECCENTRICITY":0.01057721,"INCLINATION":90.3682,"RA_OF_ASC_NODE":81.1634,"ARG_OF_PERICENTER":79.1552,"MEAN_ANOMALY":282.1478,"EPHEMERIS_TYPE":0,"CLASSIFICATION_TYPE":"U","NORAD_CAT_ID":18361,"ELEMENT_SET_NO":999,"REV_AT_EPOCH":88241,"BSTAR":0.00016356429,"MEAN_MOTION_DOT":1.08e-6,"MEAN_MOTION_DDOT":0},{"OBJECT_NAME":"OSCAR 29","OBJECT_ID":"1987-080B","EPOCH":"2026-02-01T16:41:13.848288","MEAN_MOTION":13.4445877,"ECCENTRICITY":0.01074222,"INCLINATION":90.3692,"RA_OF_ASC_NODE":81.6279,"ARG_OF_PERICENTER":101.7729,"MEAN_ANOMALY":12.4179,"EPHEMERIS_TYPE":0,"CLASSIFICATION_TYPE":"U","NORAD_CAT_ID":18362,"ELEMENT_SET_NO":999,"REV_AT_EPOCH":88194,"BSTAR":0.00015005875,"MEAN_MOTION_DOT":1.0e-6,"MEAN_MOTION_DDOT":0},{"OBJECT_NAME":"OSCAR 23","OBJECT_ID":"1988-033A","EPOCH":"2026-02-01T23:49:42.066336","MEAN_MOTION":13.27796948,"ECCENTRICITY":0.01906736,"INCLINATION":90.3226,"RA_OF_ASC_NODE":17.9788,"ARG_OF_PERICENTER":38.3505,"MEAN_ANOMALY":20.3398,"EPHEMERIS_TYPE":0,"CLASSIFICATION_TYPE":"U","NORAD_CAT_ID":19070,"ELEMENT_SET_NO":999,"REV_AT_EPOCH":82933,"BSTAR":0.00013140712,"MEAN_MOTION_DOT":7.4e-7,"MEAN_MOTION_DDOT":0},{"OBJECT_NAME":"OSCAR 32","OBJECT_ID":"1988-033B","EPOCH":"2026-02-01T23:05:29.831712","MEAN_MOTION":13.27962666,"ECCENTRICITY":0.01887239,"INCLINATION":90.3232,"RA_OF_ASC_NODE":18.1126,"ARG_OF_PERICENTER":25.3341,"MEAN_ANOMALY":27.6587,"EPHEMERIS_TYPE":0,"CLASSIFICATION_TYPE":"U","NORAD_CAT_ID":19071,"ELEMENT_SET_NO":999,"REV_AT_EPOCH":82945,"BSTAR":0.00015028418,"MEAN_MOTION_DOT":8.3e-7,"MEAN_MOTION_DDOT":0},{"OBJECT_NAME":"NOVA 2","OBJECT_ID":"1988-052A","EPOCH":"2026-02-01T16:10:42.932928","MEAN_MOTION":13.22943114,"ECCENTRICITY":0.00290321,"INCLINATION":89.981,"RA_OF_ASC_NODE":78.1957,"ARG_OF_PERICENTER":230.7547,"MEAN_ANOMALY":244.286,"EPHEMERIS_TYPE":0,"CLASSIFICATION_TYPE":"U","NORAD_CAT_ID":19223,"ELEMENT_SET_NO":999,"REV_AT_EPOCH":81621,"BSTAR":0.00013973508,"MEAN_MOTION_DOT":6.7e-7,"MEAN_MOTION_DDOT":0},{"OBJECT_NAME":"OSCAR 25","OBJECT_ID":"1988-074A","EPOCH":"2026-02-01T22:37:27.988320","MEAN_MOTION":13.42633772,"ECCENTRICITY":0.00980177,"INCLINATION":90.0354,"RA_OF_ASC_NODE":20.4077,"ARG_OF_PERICENTER":100.0225,"MEAN_ANOMALY":313.92,"EPHEMERIS_TYPE":0,"CLASSIFICATION_TYPE":"U","NORAD_CAT_ID":19419,"ELEMENT_SET_NO":999,"REV_AT_EPOCH":83327,"BSTAR":0.00013509858,"MEAN_MOTION_DOT":8.9e-7,"MEAN_MOTION_DDOT":0},{"OBJECT_NAME":"OSCAR 31","OBJECT_ID":"1988-074B","EPOCH":"2026-02-01T23:14:30.700896","MEAN_MOTION":13.42591701,"ECCENTRICITY":0.00962903,"INCLINATION":90.037,"RA_OF_ASC_NODE":20.7662,"ARG_OF_PERICENTER":94.2922,"MEAN_ANOMALY":320.341,"EPHEMERIS_TYPE":0,"CLASSIFICATION_TYPE":"U","NORAD_CAT_ID":19420,"ELEMENT_SET_NO":999,"REV_AT_EPOCH":83338,"BSTAR":6.7759814e-5,"MEAN_MOTION_DOT":5.0e-7,"MEAN_MOTION_DDOT":0}]
